[{"OBJECT_NAME":"FLOCK 4H-29","OBJECT_ID":"2025-276BU","EPOCH":"2026-04-04T17:21:51.880896","MEAN_MOTION":15.18907584,"ECCENTRICITY":0.0001736,"INCLINATION":97.4202,"RA_OF_ASC_NODE":169.4276,"ARG_OF_PERICENTER":280.6728,"MEAN_ANOMALY":79.4311,"EPHEMERIS_TYPE":0,"CLASSIFICATION_TYPE":"U","NORAD_CAT_ID":66732,"ELEMENT_SET_NO":999,"REV_AT_EPOCH":1926,"BSTAR":0.00046722,"MEAN_MOTION_DOT":9.689e-5,"MEAN_MOTION_DDOT":0},{"OBJECT_NAME":"FLOCK 4H-30","OBJECT_ID":"2025-276BV","EPOCH":"2026-04-04T17:19:46.791840","MEAN_MOTION":15.18982479,"ECCENTRICITY":0.000282,"INCLINATION":97.426,"RA_OF_ASC_NODE":169.5359,"ARG_OF_PERICENTER":260.4961,"MEAN_ANOMALY":99.5955,"EPHEMERIS_TYPE":0,"CLASSIFICATION_TYPE":"U","NORAD_CAT_ID":66733,"ELEMENT_SET_NO":999,"REV_AT_EPOCH":1926,"BSTAR":0.00052584,"MEAN_MOTION_DOT":0.00010939,"MEAN_MOTION_DDOT":0},{"OBJECT_NAME":"FLOCK 4H-31","OBJECT_ID":"2025-276BW","EPOCH":"2026-04-04T17:31:12.131328","MEAN_MOTION":15.18814648,"ECCENTRICITY":0.0002225,"INCLINATION":97.4204,"RA_OF_ASC_NODE":169.418,"ARG_OF_PERICENTER":273.1633,"MEAN_ANOMALY":86.9347,"EPHEMERIS_TYPE":0,"CLASSIFICATION_TYPE":"U","NORAD_CAT_ID":66734,"ELEMENT_SET_NO":999,"REV_AT_EPOCH":1926,"BSTAR":0.00046471,"MEAN_MOTION_DOT":9.611e-5,"MEAN_MOTION_DDOT":0},{"OBJECT_NAME":"FLOCK 4H-32","OBJECT_ID":"2025-276BX","EPOCH":"2026-04-04T17:24:30.767904","MEAN_MOTION":15.18911795,"ECCENTRICITY":0.0003214,"INCLINATION":97.4257,"RA_OF_ASC_NODE":169.5187,"ARG_OF_PERICENTER":255.8705,"MEAN_ANOMALY":104.2172,"EPHEMERIS_TYPE":0,"CLASSIFICATION_TYPE":"U","NORAD_CAT_ID":66735,"ELEMENT_SET_NO":999,"REV_AT_EPOCH":1926,"BSTAR":0.00048944,"MEAN_MOTION_DOT":0.00010155,"MEAN_MOTION_DDOT":0},{"OBJECT_NAME":"FLOCK 4H-33","OBJECT_ID":"2025-276BY","EPOCH":"2026-04-04T18:16:52.999392","MEAN_MOTION":15.20113238,"ECCENTRICITY":0.0002665,"INCLINATION":97.4253,"RA_OF_ASC_NODE":169.7718,"ARG_OF_PERICENTER":159.5871,"MEAN_ANOMALY":200.5471,"EPHEMERIS_TYPE":0,"CLASSIFICATION_TYPE":"U","NORAD_CAT_ID":66736,"ELEMENT_SET_NO":999,"REV_AT_EPOCH":1928,"BSTAR":0.00049522,"MEAN_MOTION_DOT":0.00010641,"MEAN_MOTION_DDOT":0},{"OBJECT_NAME":"FLOCK 4H-34","OBJECT_ID":"2025-276BZ","EPOCH":"2026-04-04T04:37:55.602624","MEAN_MOTION":15.19634625,"ECCENTRICITY":0.00025709,"INCLINATION":97.4266,"RA_OF_ASC_NODE":169.1799,"ARG_OF_PERICENTER":167.1713,"MEAN_ANOMALY":192.9588,"EPHEMERIS_TYPE":0,"CLASSIFICATION_TYPE":"U","NORAD_CAT_ID":66737,"ELEMENT_SET_NO":999,"REV_AT_EPOCH":1844,"BSTAR":0.00046471644,"MEAN_MOTION_DOT":9.842e-5,"MEAN_MOTION_DDOT":0},{"OBJECT_NAME":"FLOCK 4H-35","OBJECT_ID":"2025-276CA","EPOCH":"2026-04-04T18:33:54.020160","MEAN_MOTION":15.19860781,"ECCENTRICITY":0.0002592,"INCLINATION":97.4229,"RA_OF_ASC_NODE":169.7155,"ARG_OF_PERICENTER":148.4822,"MEAN_ANOMALY":211.6569,"EPHEMERIS_TYPE":0,"CLASSIFICATION_TYPE":"U","NORAD_CAT_ID":66738,"ELEMENT_SET_NO":999,"REV_AT_EPOCH":1857,"BSTAR":0.00041052,"MEAN_MOTION_DOT":8.743e-5,"MEAN_MOTION_DDOT":0},{"OBJECT_NAME":"FLOCK 4H-36","OBJECT_ID":"2025-276CB","EPOCH":"2026-04-04T17:30:52.284384","MEAN_MOTION":15.1960611,"ECCENTRICITY":0.0002434,"INCLINATION":97.4278,"RA_OF_ASC_NODE":169.7011,"ARG_OF_PERICENTER":178.5828,"MEAN_ANOMALY":181.5414,"EPHEMERIS_TYPE":0,"CLASSIFICATION_TYPE":"U","NORAD_CAT_ID":66739,"ELEMENT_SET_NO":999,"REV_AT_EPOCH":1927,"BSTAR":0.00045501,"MEAN_MOTION_DOT":9.627e-5,"MEAN_MOTION_DDOT":0}]
