FLOCK 4H-29             
1 66732U 25276BU  26094.72351714  .00009689  00000+0  46722-3 0  9992
2 66732  97.4202 169.4276 0001736 280.6728  79.4311 15.18907584 19266
FLOCK 4H-30             
1 66733U 25276BV  26094.72206935  .00010939  00000+0  52584-3 0  9990
2 66733  97.4260 169.5359 0002820 260.4961  99.5955 15.18982479 19267
FLOCK 4H-31             
1 66734U 25276BW  26094.73000152  .00009611  00000+0  46471-3 0  9998
2 66734  97.4204 169.4180 0002225 273.1633  86.9347 15.18814648 19260
FLOCK 4H-32             
1 66735U 25276BX  26094.72535611  .00010155  00000+0  48944-3 0  9993
2 66735  97.4257 169.5187 0003214 255.8705 104.2172 15.18911795 19264
FLOCK 4H-33             
1 66736U 25276BY  26094.76172453  .00010641  00000+0  49522-3 0  9992
2 66736  97.4253 169.7718 0002665 159.5871 200.5471 15.20113238 19289
FLOCK 4H-34             
1 66737U 25276BZ  26094.19300466  .00009842  00000+0  46472-3 0  9999
2 66737  97.4266 169.1799 0002570 167.1713 192.9588 15.19634625 18448
FLOCK 4H-35             
1 66738U 25276CA  26094.77354190  .00008743  00000+0  41052-3 0  9995
2 66738  97.4229 169.7155 0002592 148.4822 211.6569 15.19860781 18573
FLOCK 4H-36             
1 66739U 25276CB  26094.72977181  .00009627  00000+0  45501-3 0  9997
2 66739  97.4278 169.7011 0002434 178.5828 181.5414 15.19606110 19270
